CCSDS_OMM_VERS = 2.0
CREATION_DATE  = 
ORIGINATOR     = 

OBJECT_NAME    = UNKNOWN
OBJECT_ID      = 
CENTER_NAME    = EARTH
REF_FRAME      = TEME
TIME_SYSTEM    = UTC
MEAN_ELEMENT_THEORY = SGP/SGP4

EPOCH          = 2025-10-27T12:03:08.192160
MEAN_MOTION    = 14.38515028
ECCENTRICITY   = .0209386
INCLINATION    = 97.7559
RA_OF_ASC_NODE = 21.0209
ARG_OF_PERICENTER = 69.0568
MEAN_ANOMALY   = 293.2892

EPHEMERIS_TYPE = 0
CLASSIFICATION_TYPE = U
NORAD_CAT_ID   = 82073
ELEMENT_SET_NO = 999
REV_AT_EPOCH   = 56847
BSTAR          = .71455E-3
MEAN_MOTION_DOT = .2778E-4
MEAN_MOTION_DDOT = 0

CCSDS_OMM_VERS = 2.0
CREATION_DATE  = 
ORIGINATOR     = 

OBJECT_NAME    = UNKNOWN
OBJECT_ID      = 
CENTER_NAME    = EARTH
REF_FRAME      = TEME
TIME_SYSTEM    = UTC
MEAN_ELEMENT_THEORY = SGP/SGP4

EPOCH          = 2025-10-27T09:44:38.711040
MEAN_MOTION    = 14.15091611
ECCENTRICITY   = .0084676
INCLINATION    = 99.0265
RA_OF_ASC_NODE = 7.7342
ARG_OF_PERICENTER = 173.4951
MEAN_ANOMALY   = 186.7342

EPHEMERIS_TYPE = 0
CLASSIFICATION_TYPE = U
NORAD_CAT_ID   = 82139
ELEMENT_SET_NO = 999
REV_AT_EPOCH   = 47356
BSTAR          = .18275E-2
MEAN_MOTION_DOT = .3624E-4
MEAN_MOTION_DDOT = 0

CCSDS_OMM_VERS = 2.0
CREATION_DATE  = 
ORIGINATOR     = 

OBJECT_NAME    = UNKNOWN
OBJECT_ID      = 
CENTER_NAME    = EARTH
REF_FRAME      = TEME
TIME_SYSTEM    = UTC
MEAN_ELEMENT_THEORY = SGP/SGP4

EPOCH          = 2025-10-27T01:28:58.350144
MEAN_MOTION    = 14.48806690
ECCENTRICITY   = .033146
INCLINATION    = 65.6558
RA_OF_ASC_NODE = 60.1767
ARG_OF_PERICENTER = 240.7339
MEAN_ANOMALY   = 116.0253

EPHEMERIS_TYPE = 0
CLASSIFICATION_TYPE = U
NORAD_CAT_ID   = 82180
ELEMENT_SET_NO = 999
REV_AT_EPOCH   = 59498
BSTAR          = .38605E-2
MEAN_MOTION_DOT = .29618E-3
MEAN_MOTION_DDOT = 0

CCSDS_OMM_VERS = 2.0
CREATION_DATE  = 
ORIGINATOR     = 

OBJECT_NAME    = UNKNOWN
OBJECT_ID      = 
CENTER_NAME    = EARTH
REF_FRAME      = TEME
TIME_SYSTEM    = UTC
MEAN_ELEMENT_THEORY = SGP/SGP4

EPOCH          = 2025-10-25T19:52:30.396576
MEAN_MOTION    = 14.35157508
ECCENTRICITY   = .0016768
INCLINATION    = 74.0325
RA_OF_ASC_NODE = 136.1640
ARG_OF_PERICENTER = 336.1010
MEAN_ANOMALY   = 23.9362

EPHEMERIS_TYPE = 0
CLASSIFICATION_TYPE = U
NORAD_CAT_ID   = 82189
ELEMENT_SET_NO = 999
REV_AT_EPOCH   = 62554
BSTAR          = .1315E-3
MEAN_MOTION_DOT = .35E-5
MEAN_MOTION_DDOT = 0

CCSDS_OMM_VERS = 2.0
CREATION_DATE  = 
ORIGINATOR     = 

OBJECT_NAME    = UNKNOWN
OBJECT_ID      = 
CENTER_NAME    = EARTH
REF_FRAME      = TEME
TIME_SYSTEM    = UTC
MEAN_ELEMENT_THEORY = SGP/SGP4

EPOCH          = 2025-10-25T22:24:56.659968
MEAN_MOTION    = 13.92757733
ECCENTRICITY   = .0494402
INCLINATION    = 63.0120
RA_OF_ASC_NODE = 21.0405
ARG_OF_PERICENTER = 287.9553
MEAN_ANOMALY   = 66.8203

EPHEMERIS_TYPE = 0
CLASSIFICATION_TYPE = U
NORAD_CAT_ID   = 82205
ELEMENT_SET_NO = 999
REV_AT_EPOCH   = 60134
BSTAR          = .11144E-2
MEAN_MOTION_DOT = .3876E-4
MEAN_MOTION_DDOT = 0

CCSDS_OMM_VERS = 2.0
CREATION_DATE  = 
ORIGINATOR     = 

OBJECT_NAME    = UNKNOWN
OBJECT_ID      = 
CENTER_NAME    = EARTH
REF_FRAME      = TEME
TIME_SYSTEM    = UTC
MEAN_ELEMENT_THEORY = SGP/SGP4

EPOCH          = 2025-10-22T16:32:07.733760
MEAN_MOTION    = 14.13272122
ECCENTRICITY   = .0073805
INCLINATION    = 98.9046
RA_OF_ASC_NODE = 201.3521
ARG_OF_PERICENTER = 337.5876
MEAN_ANOMALY   = 52.6381

EPHEMERIS_TYPE = 0
CLASSIFICATION_TYPE = U
NORAD_CAT_ID   = 82250
ELEMENT_SET_NO = 999
REV_AT_EPOCH   = 60942
BSTAR          = .26181E-2
MEAN_MOTION_DOT = .4994E-4
MEAN_MOTION_DDOT = 0

CCSDS_OMM_VERS = 2.0
CREATION_DATE  = 
ORIGINATOR     = 

OBJECT_NAME    = UNKNOWN
OBJECT_ID      = 
CENTER_NAME    = EARTH
REF_FRAME      = TEME
TIME_SYSTEM    = UTC
MEAN_ELEMENT_THEORY = SGP/SGP4

EPOCH          = 2025-10-27T08:00:40.239648
MEAN_MOTION    = 12.33493594
ECCENTRICITY   = .0753381
INCLINATION    = 67.5242
RA_OF_ASC_NODE = 284.7720
ARG_OF_PERICENTER = 136.4460
MEAN_ANOMALY   = 229.8623

EPHEMERIS_TYPE = 0
CLASSIFICATION_TYPE = U
NORAD_CAT_ID   = 82272
ELEMENT_SET_NO = 999
REV_AT_EPOCH   = 26621
BSTAR          = .69285E-3
MEAN_MOTION_DOT = .178E-5
MEAN_MOTION_DDOT = 0

CCSDS_OMM_VERS = 2.0
CREATION_DATE  = 
ORIGINATOR     = 

OBJECT_NAME    = UNKNOWN
OBJECT_ID      = 
CENTER_NAME    = EARTH
REF_FRAME      = TEME
TIME_SYSTEM    = UTC
MEAN_ELEMENT_THEORY = SGP/SGP4

EPOCH          = 2025-10-14T07:51:14.590944
MEAN_MOTION    = 14.31090859
ECCENTRICITY   = .0131012
INCLINATION    = 66.6195
RA_OF_ASC_NODE = 304.4383
ARG_OF_PERICENTER = 263.3779
MEAN_ANOMALY   = 95.2392

EPHEMERIS_TYPE = 0
CLASSIFICATION_TYPE = U
NORAD_CAT_ID   = 82295
ELEMENT_SET_NO = 999
REV_AT_EPOCH   = 57122
BSTAR          = .58038E-3
MEAN_MOTION_DOT = .1593E-4
MEAN_MOTION_DDOT = 0

CCSDS_OMM_VERS = 2.0
CREATION_DATE  = 
ORIGINATOR     = 

OBJECT_NAME    = UNKNOWN
OBJECT_ID      = 
CENTER_NAME    = EARTH
REF_FRAME      = TEME
TIME_SYSTEM    = UTC
MEAN_ELEMENT_THEORY = SGP/SGP4

EPOCH          = 2025-10-27T01:24:56.412864
MEAN_MOTION    = 13.83027964
ECCENTRICITY   = .0078541
INCLINATION    = 81.9110
RA_OF_ASC_NODE = 43.3806
ARG_OF_PERICENTER = 148.9714
MEAN_ANOMALY   = 31.2297

EPHEMERIS_TYPE = 0
CLASSIFICATION_TYPE = U
NORAD_CAT_ID   = 82303
ELEMENT_SET_NO = 999
REV_AT_EPOCH   = 50796
BSTAR          = .31639E-1
MEAN_MOTION_DOT = .35558E-3
MEAN_MOTION_DDOT = 0

