UNKNOWN                 
1 82073U          25300.50217815  .00002778  00000+0  71455-3 0  9997
2 82073  97.7559  21.0209 0209386  69.0568 293.2892 14.38515028568472
UNKNOWN                 
1 82139U          25300.40600360  .00003624  00000+0  18275-2 0  9991
2 82139  99.0265   7.7342 0084676 173.4951 186.7342 14.15091611473565
UNKNOWN                 
1 82180U          25300.06178646  .00029618  00000+0  38605-2 0  9996
2 82180  65.6558  60.1767 0331460 240.7339 116.0253 14.48806690594987
UNKNOWN                 
1 82189U          25298.82812959  .00000350  00000+0  13150-3 0  9998
2 82189  74.0325 136.1640 0016768 336.1010  23.9362 14.35157508625540
UNKNOWN                 
1 82205U          25298.93398912  .00003876  00000+0  11144-2 0  9993
2 82205  63.0120  21.0405 0494402 287.9553  66.8203 13.92757733601341
UNKNOWN                 
1 82250U          25295.68897840  .00004994  00000+0  26181-2 0  9995
2 82250  98.9046 201.3521 0073805 337.5876  52.6381 14.13272122609422
UNKNOWN                 
1 82272U          25300.33379907  .00000178  00000+0  69285-3 0  9990
2 82272  67.5242 284.7720 0753381 136.4460 229.8623 12.33493594266212
UNKNOWN                 
1 82295U          25287.32725221  .00001593  00000+0  58038-3 0  9998
2 82295  66.6195 304.4383 0131012 263.3779  95.2392 14.31090859571228
UNKNOWN                 
1 82303U          25300.05898626  .00035558  00000+0  31639-1 0  9998
2 82303  81.9110  43.3806 0078541 148.9714  31.2297 13.83027964507965
